0 DELTA 1 DEB
1 21383U 75052DD  13280.41364551  .00000060  00000-0  35749-3 0  2001
2 21383 099.6627 083.9949 0365307 330.8628 054.5852 12.72377615 39039
0 DELTA 1 DEB
1 21383U 75052DD  13285.44528804  .00000039  00000-0  28074-3 0  2012
2 21383 099.6626 088.2576 0365242 319.9277 062.3492 12.72378868 39676
0 DELTA 1 DEB
1 21383U 75052DD  13290.39957589  .00000053  00000-0  33644-3 0  2024
2 21383 099.6632 092.4548 0365272 309.1586 075.8118 12.72379814 40304
0 DELTA 1 DEB
1 21383U 75052DD  13292.94477896  .00000074  00000-0  41200-3 0  2036
2 21383 099.6626 094.6102 0365405 303.6269 214.2958 12.72380086 40621
